STARLINK-3619           
1 51787U 22017V   23330.77517968  .00001025  00000+0  82469-4 0  9991
2 51787  53.2176 132.7090 0001481  90.4854 269.6307 15.08846147 96383
STARLINK-3641           
1 51788U 22017W   23330.74941949  .00000269  00000+0  35011-4 0  9999
2 51788  53.2171 132.8243 0001501 103.9346 256.1813 15.08840676 98026
STARLINK-3639           
1 51789U 22017X   23330.76413613  .00001365  00000+0  10383-3 0  9996
2 51789  53.2171 132.7569 0001398  96.2704 263.8447 15.08847147 96388
STARLINK-3631           
1 51790U 22017Y   23330.67950826 -.00001548  00000+0 -79242-4 0  9995
2 51790  53.2151 133.1343 0000706 109.4718 250.6350 15.08832416 98064
STARLINK-3602           
1 51791U 22017Z   23330.69053877  .00001128  00000+0  88951-4 0  9997
2 51791  53.2145 133.0864 0001304  93.4204 266.6938 15.08844239 98012
STARLINK-3626           
1 51792U 22017AA  23330.73837734  .00000535  00000+0  51701-4 0  9999
2 51792  53.2161 132.8730 0001417  95.6084 264.5070 15.08845278 98079
STARLINK-3633           
1 51793U 22017AB  23330.75309416  .00000386  00000+0  42338-4 0  9993
2 51793  53.2148 132.8047 0001324  82.8831 277.2312 15.08852541 98072
STARLINK-3573           
1 51794U 22017AC  23330.86349426  .00001012  00000+0  81623-4 0  9998
2 51794  53.2165 132.3091 0001495 100.1980 259.9181 15.08848765 98045
STARLINK-3586           
1 51795U 22017AD  23330.67678623  .00000633  00000+0  57824-4 0  9996
2 51795  53.2160 133.2329 0001396  97.7531 262.3620 15.08843107 98016
STARLINK-3630           
1 51796U 22017AE  23330.71998086  .00004497  00000+0  30033-3 0  9994
2 51796  53.2155 132.9572 0001436  91.3829 268.7328 15.08858293 98019
STARLINK-3627           
1 51797U 22017AF  23330.66166296  .00000323  00000+0  26968-4 0  9996
2 51797  53.1526 105.7926 0000945  50.7154 309.3928 15.23811259 98449
STARLINK-3634           
1 51798U 22017AG  23330.78254007  .00001429  00000+0  10787-3 0  9997
2 51798  53.2168 132.6781 0001622  76.6685 283.4488 15.08844915 98070
STARLINK-3637           
1 51799U 22017AH  23330.72734471  .00002456  00000+0  17232-3 0  9993
2 51799  53.2159 132.9233 0001386  82.5108 277.6042 15.08848601 98021
STARLINK-3600           
1 51800U 22017AJ  23331.25001157  .00367003  62204-4  10973-2 0  9998
2 51800  53.2036  68.2326 0007761 359.4708 156.1700 15.91818210 99014
STARLINK-3592           
1 51801U 22017AK  23330.72365897  .00001008  00000+0  81376-4 0  9992
2 51801  53.2174 132.9391 0001490  86.4708 273.6455 15.08844709 98021
STARLINK-3557           
1 51802U 22017AL  23330.74205579  .00000804  00000+0  68602-4 0  9995
2 51802  53.2167 132.8447 0001285  92.1447 267.9693 15.08843362 98025
STARLINK-3544           
1 51803U 22017AM  23331.11004771 -.00023400  00000+0 -14576-2 0  9997
2 51803  53.2143 131.2047 0001481  81.4946 278.6214 15.08823562 98075
STARLINK-3601           
1 51804U 22017AN  23330.72548973  .00003519  00000+0  23894-3 0  9992
2 51804  53.2153 112.9276 0001262  91.4233 268.6903 15.08857264 98254
STARLINK-3605           
1 51805U 22017AP  23330.72918391  .00003274  00000+0  22362-3 0  9995
2 51805  53.2159 112.9921 0001671  67.2441 292.8728 15.08852927 98349
STARLINK-3581           
1 51806U 22017AQ  23330.86809276  .00000848  00000+0  71336-4 0  9992
2 51806  53.2167 122.2865 0001563 104.9597 255.1568 15.08846748 98080
STARLINK-3606           
1 51807U 22017AR  23330.74297549  .00001138  00000+0  89578-4 0  9994
2 51807  53.2161 122.8508 0001303  84.6670 275.4471 15.08847039 98210
STARLINK-3609           
1 51808U 22017AS  23330.72825545  .00000068  00000+0  22377-4 0  9991
2 51808  53.2175 122.9159 0001600 104.5548 255.5622 15.08847587 98063
STARLINK-3607           
1 51809U 22017AT  23330.74027024 -.00002297  00000+0 -12633-3 0  9991
2 51809  53.2171 122.8744 0001160 105.8036 254.3084 15.08819241 98162
STARLINK-3613           
1 51810U 22017AU  23330.64087971  .00001614  00000+0  11945-3 0  9994
2 51810  53.2167 113.5307 0001108  95.1242 264.9876 15.08845740 98162
STARLINK-3569           
1 51811U 22017AV  23330.73193629  .00001252  00000+0  96754-4 0  9993
2 51811  53.2160 122.9004 0001295  90.8567 269.2573 15.08845177 98068
STARLINK-3610           
1 51812U 22017AW  23330.67397226  .00001156  00000+0  90688-4 0  9999
2 51812  53.2166 113.1632 0001438  83.9753 276.1403 15.08849360 98172
STARLINK-3552           
1 51813U 22017AX  23330.72182369  .00001332  00000+0  10179-3 0  9998
2 51813  53.2162 112.9693 0001362  93.1450 266.9698 15.08840014 98187
STARLINK-3599           
1 51814U 22017AY  23330.66660639  .00001805  00000+0  13142-3 0  9991
2 51814  53.2172 113.1919 0001262  80.1726 279.9409 15.08860630 98173
STARLINK-3604           
1 51815U 22017AZ  23330.86900603 -.00000417  00000+0 -81225-5 0  9991
2 51815  53.2161 112.2845 0001413  52.8122 307.2999 15.08846185 98206
STARLINK-3603           
1 51816U 22017BA  23330.68596722  .00005480  00000+0  36172-3 0  9997
2 51816  53.2180 113.3480 0001491  93.7597 266.3565 15.08884023 98220
L-SAR 01B               
1 51822U 22018A   23331.17261238  .00001841  00000+0  20438-3 0  9996
2 51822  97.8091 335.9405 0001433  90.0809 270.0572 14.88418294 94926
2022-019A               
1 51824U 22019A   23331.17504757  .00012568  00000+0  61635-3 0  9997
2 51824  97.4580  40.8994 0016112 227.3340 132.6537 15.18141633 96433
2022-019B               
1 51825U 22019B   23331.15460489  .00010990  00000+0  55848-3 0  9995
2 51825  97.4563  40.5128 0014906 224.5408 135.4628 15.16948435 96406
JILIN-1 MF02A01         
1 51826U 22019C   23331.15257867  .00021293  00000+0  92047-3 0  9990
2 51826  97.4553  42.2612 0012818 219.1662 140.8648 15.22414966 96524
2022-019D               
1 51827U 22019D   23331.18995448  .00010441  00000+0  52845-3 0  9993
2 51827  97.4599  40.9420 0013340 223.5326 136.4856 15.17122645 96429
2022-019E               
1 51828U 22019E   23331.17338701  .00016067  00000+0  72803-3 0  9992
2 51828  97.4593  42.1341 0013338 221.4999 138.5225 15.20859246 96500
2022-019F               
1 51829U 22019F   23331.18941857  .00032708  00000+0  11733-2 0  9990
2 51829  97.4642  44.9115 0010641 209.9772 150.0860 15.28583503 96668
2022-019G               
1 51830U 22019G   23331.19331844  .00034808  00000+0  12451-2 0  9993
2 51830  97.4551  44.2885 0011590 218.3699 141.6717 15.28651794 96667
JILIN-1 GAOFEN 03D14    
1 51831U 22019H   23331.16221177  .00015412  00000+0  71607-3 0  9997
2 51831  97.4593  42.1641 0016061 221.9789 138.0216 15.19968843 96502
2022-019J               
1 51832U 22019J   23331.17239825  .00003074  00000+0  17688-3 0  9998
2 51832  97.4592  39.7015 0008619 232.3125 127.7325 15.13164921 96346
2022-019K               
1 51833U 22019K   23331.19345606  .00020622  00000+0  86109-3 0  9998
2 51833  97.4568  43.1235 0011553 220.1909 139.8474 15.23612372 96583
JILIN-1 GAOFEN 03D16    
1 51834U 22019L   23331.15498697  .00015587  00000+0  72423-3 0  9992
2 51834  97.4598  42.2030 0013131 230.6319 129.3753 15.20004904 96504
JILIN-1 GAOFEN 03D11    
1 51835U 22019M   23331.15041791  .00015724  00000+0  72828-3 0  9994
2 51835  97.4599  42.2094 0014660 224.0501 135.9567 15.20091860 96507
2022-019N               
1 51836U 22019N   23331.19672575  .00033341  00000+0  11992-2 0  9998
2 51836  97.4614  44.8511 0011239 220.0543 139.9869 15.28484891 96685
2022-019P               
1 51837U 22019P   23331.15177663  .00034580  00000+0  11997-2 0  9994
2 51837  97.4549  44.8058 0009650 214.1554 145.9066 15.29672705 96702
JILIN-1 GAOFEN 03D17    
1 51838U 22019Q   23331.17015569  .00014896  00000+0  68509-3 0  9993
2 51838  97.4591  42.4239 0011494 226.8539 133.1736 15.20385867 96521
JILIN-1 GAOFEN 03D15    
1 51839U 22019R   23331.13540298  .00014225  00000+0  66068-3 0  9996
2 51839  97.4578  42.0776 0009474 215.2101 144.8509 15.20076805 96505
JILIN-1 GAOFEN 03D10    
1 51840U 22019S   23331.18471815  .00014301  00000+0  66562-3 0  9995
2 51840  97.4592  42.2658 0012128 215.7442 144.2982 15.19976742 96514
JILIN-1 GAOFEN 03D12    
1 51841U 22019T   23331.17914020  .00013808  00000+0  64153-3 0  9990
2 51841  97.4582  42.1935 0012295 217.1238 142.9147 15.20042820 96516
2022-019U               
1 51842U 22019U   23331.14869832  .00043490  00000+0  89978-3 0  9990
2 51842  97.5231  62.1875 0044402 118.1441 242.4305 15.44583250 97522
2022-019V               
1 51843U 22019V   23331.19642814  .00007248  00000+0  36959-3 0  9997
2 51843  97.4612  41.5488 0012469 235.9946 124.0104 15.16982542 96451
JILIN-1 GAOFEN 03D18    
1 51844U 22019W   23331.17050559  .00014930  00000+0  69320-3 0  9999
2 51844  97.4571  41.9961 0017950 225.2708 134.7067 15.19970364 96407
2022-019X               
1 51845U 22019X   23331.15615491  .00018170  00000+0  78628-3 0  9991
2 51845  97.4577  43.0320 0011673 224.8845 135.1448 15.22426796 96484
JILIN-1 GAOFEN 03D13    
1 51846U 22019Y   23331.14148262  .00015413  00000+0  71569-3 0  9992
2 51846  97.4572  42.0123 0012085 225.5607 134.4640 15.20040933 96425
STRIX-BETA              
1 51847U 22020A   23331.11838615  .00011698  00000+0  75908-3 0  9992
2 51847  97.6839  28.6811 0011881 304.7275  55.2833 15.08172099 95587
GOES 18                 
1 51850U 22021A   23331.16993639  .00000106  00000+0  00000+0 0  9999
2 51850   0.0087  68.1531 0000527 153.0774 128.7833  1.00270153  6446
STARLINK-3542           
1 51852U 22022A   23330.82394498  .00000446  00000+0  46092-4 0  9995
2 51852  53.2143 162.4871 0001422  86.9497 273.1658 15.08841892 95879
STARLINK-3539           
1 51853U 22022B   23330.85701741  .00000087  00000+0  23528-4 0  9992
2 51853  53.2142 161.9522 0001017  96.6658 263.4450 15.08842217 97082
STARLINK-3541           
1 51854U 22022C   23330.82026147  .00001363  00000+0  10370-3 0  9998
2 51854  53.2145 162.5032 0001432 108.1555 251.9593 15.08845397 97133
